{"type": "FeatureCollection", "features": [{"type": "Feature", "properties": {"norad_id": 24946, "name": "IRIDIUM 33", "group": "iridium-33-debris", "lat": 66.00029946531717, "lon": -119.08343684180252, "alt_km": 768.950579365207, "timestamp": "2025-12-10T16:57:12.022823+00:00", "meta": {"OBJECT_NAME": "IRIDIUM 33", "OBJECT_ID": "1997-051C", "EPOCH": "2025-12-10T11:24:15.672096", "MEAN_MOTION": 14.35034929, "ECCENTRICITY": 0.0006773, "INCLINATION": 86.387, "RA_OF_ASC_NODE": 69.1722, "ARG_OF_PERICENTER": 208.6208, "MEAN_ANOMALY": 151.4617, "EPHEMERIS_TYPE": 0, "CLASSIFICATION_TYPE": "U", "NORAD_CAT_ID": 24946, "ELEMENT_SET_NO": 999, "REV_AT_EPOCH": 47802, "BSTAR": 0.0001957, "MEAN_MOTION_DOT": 5.77e-06, "MEAN_MOTION_DDOT": 0}, "tle": {"line1": "1 24946U 97051C   25344.47518139  .00000577  00000+0  19570-3 0  9996", "line2": "2 24946  86.3870  69.1722 0006773 208.6208 151.4617 14.35034929478021"}}, "geometry": {"type": "Point", "coordinates": [-119.08343684180252, 66.00029946531717]}}, {"type": "Feature", "properties": {"norad_id": 33773, "name": "IRIDIUM 33 DEB", "group": "iridium-33-debris", "lat": 10.480508029330345, "lon": 62.11817588313307, "alt_km": 756.2419560924491, "timestamp": "2025-12-10T16:57:12.022870+00:00", "meta": {"OBJECT_NAME": "IRIDIUM 33 DEB", "OBJECT_ID": "1997-051L", "EPOCH": "2025-12-10T11:54:46.043136", "MEAN_MOTION": 14.43249294, "ECCENTRICITY": 0.0012273, "INCLINATION": 86.4013, "RA_OF_ASC_NODE": 61.5401, "ARG_OF_PERICENTER": 153.0085, "MEAN_ANOMALY": 207.1757, "EPHEMERIS_TYPE": 0, "CLASSIFICATION_TYPE": "U", "NORAD_CAT_ID": 33773, "ELEMENT_SET_NO": 999, "REV_AT_EPOCH": 88315, "BSTAR": 0.00048914, "MEAN_MOTION_DOT": 1.666e-05, "MEAN_MOTION_DDOT": 0}, "tle": {"line1": "1 33773U 97051L   25344.49636624  .00001666  00000+0  48914-3 0  9990", "line2": "2 33773  86.4013  61.5401 0012273 153.0085 207.1757 14.43249294883157"}}, "geometry": {"type": "Point", "coordinates": [62.11817588313307, 10.480508029330345]}}, {"type": "Feature", "properties": {"norad_id": 33775, "name": "IRIDIUM 33 DEB", "group": "iridium-33-debris", "lat": 72.44675790817344, "lon": -141.17522894203958, "alt_km": 740.8490081980553, "timestamp": "2025-12-10T16:57:12.022887+00:00", "meta": {"OBJECT_NAME": "IRIDIUM 33 DEB", "OBJECT_ID": "1997-051N", "EPOCH": "2025-12-10T11:30:55.921824", "MEAN_MOTION": 14.41461021, "ECCENTRICITY": 0.0014048, "INCLINATION": 86.3639, "RA_OF_ASC_NODE": 50.5184, "ARG_OF_PERICENTER": 161.5462, "MEAN_ANOMALY": 210.7248, "EPHEMERIS_TYPE": 0, "CLASSIFICATION_TYPE": "U", "NORAD_CAT_ID": 33775, "ELEMENT_SET_NO": 999, "REV_AT_EPOCH": 88108, "BSTAR": 0.00051864, "MEAN_MOTION_DOT": 1.703e-05, "MEAN_MOTION_DDOT": 0}, "tle": {"line1": "1 33775U 97051N   25344.47981391  .00001703  00000+0  51864-3 0  9994", "line2": "2 33775  86.3639  50.5184 0014048 161.5462 210.7248 14.41461021881080"}}, "geometry": {"type": "Point", "coordinates": [-141.17522894203958, 72.44675790817344]}}, {"type": "Feature", "properties": {"norad_id": 33776, "name": "IRIDIUM 33 DEB", "group": "iridium-33-debris", "lat": 0.5320846443094593, "lon": 81.66320699446038, "alt_km": 776.9657024419894, "timestamp": "2025-12-10T16:57:12.022901+00:00", "meta": {"OBJECT_NAME": "IRIDIUM 33 DEB", "OBJECT_ID": "1997-051P", "EPOCH": "2025-12-10T07:10:53.796000", "MEAN_MOTION": 14.38228746, "ECCENTRICITY": 0.0014051, "INCLINATION": 86.4037, "RA_OF_ASC_NODE": 81.8007, "ARG_OF_PERICENTER": 198.4306, "MEAN_ANOMALY": 215.4156, "EPHEMERIS_TYPE": 0, "CLASSIFICATION_TYPE": "U", "NORAD_CAT_ID": 33776, "ELEMENT_SET_NO": 999, "REV_AT_EPOCH": 88047, "BSTAR": 0.00052587, "MEAN_MOTION_DOT": 1.618e-05, "MEAN_MOTION_DDOT": 0}, "tle": {"line1": "1 33776U 97051P   25344.29923375  .00001618  00000+0  52587-3 0  9991", "line2": "2 33776  86.4037  81.8007 0014051 198.4306 215.4156 14.38228746880478"}}, "geometry": {"type": "Point", "coordinates": [81.66320699446038, 0.5320846443094593]}}, {"type": "Feature", "properties": {"norad_id": 33777, "name": "IRIDIUM 33 DEB", "group": "iridium-33-debris", "lat": 21.225814097209643, "lon": 37.49731577187742, "alt_km": 709.3519564471144, "timestamp": "2025-12-10T16:57:12.022913+00:00", "meta": {"OBJECT_NAME": "IRIDIUM 33 DEB", "OBJECT_ID": "1997-051Q", "EPOCH": "2025-12-10T10:15:22.862880", "MEAN_MOTION": 14.55586359, "ECCENTRICITY": 0.0005075, "INCLINATION": 86.3784, "RA_OF_ASC_NODE": 36.2091, "ARG_OF_PERICENTER": 259.7448, "MEAN_ANOMALY": 100.3187, "EPHEMERIS_TYPE": 0, "CLASSIFICATION_TYPE": "U", "NORAD_CAT_ID": 33777, "ELEMENT_SET_NO": 999, "REV_AT_EPOCH": 88500, "BSTAR": 0.0013282, "MEAN_MOTION_DOT": 5.812e-05, "MEAN_MOTION_DDOT": 0}, "tle": {"line1": "1 33777U 97051Q   25344.42734795  .00005812  00000+0  13282-2 0  9991", "line2": "2 33777  86.3784  36.2091 0005075 259.7448 100.3187 14.55586359885004"}}, "geometry": {"type": "Point", "coordinates": [37.49731577187742, 21.225814097209643]}}, {"type": "Feature", "properties": {"norad_id": 33850, "name": "IRIDIUM 33 DEB", "group": "iridium-33-debris", "lat": 82.17362694064086, "lon": 58.792263545991396, "alt_km": 743.1664444268908, "timestamp": "2025-12-10T16:57:12.022925+00:00", "meta": {"OBJECT_NAME": "IRIDIUM 33 DEB", "OBJECT_ID": "1997-051T", "EPOCH": "2025-12-10T03:29:36.109248", "MEAN_MOTION": 14.42137967, "ECCENTRICITY": 0.00119531, "INCLINATION": 86.3419, "RA_OF_ASC_NODE": 31.2952, "ARG_OF_PERICENTER": 168.989, "MEAN_ANOMALY": 244.4174, "EPHEMERIS_TYPE": 0, "CLASSIFICATION_TYPE": "U", "NORAD_CAT_ID": 33850, "ELEMENT_SET_NO": 999, "REV_AT_EPOCH": 88115, "BSTAR": 0.00047039968, "MEAN_MOTION_DOT": 1.567e-05, "MEAN_MOTION_DDOT": 0}, "tle": {"line1": "1 33850U 97051T   25344.14555682  .00001567  00000+0  47040-3 0  9991", "line2": "2 33850  86.3419  31.2952 0011953 168.9890 244.4174 14.42137967881157"}}, "geometry": {"type": "Point", "coordinates": [58.792263545991396, 82.17362694064086]}}, {"type": "Feature", "properties": {"norad_id": 33853, "name": "IRIDIUM 33 DEB", "group": "iridium-33-debris", "lat": 60.964986476557364, "lon": -2.055207401423513, "alt_km": 1041.8264615201315, "timestamp": "2025-12-10T16:57:12.022938+00:00", "meta": {"OBJECT_NAME": "IRIDIUM 33 DEB", "OBJECT_ID": "1997-051W", "EPOCH": "2025-12-09T12:13:24.016800", "MEAN_MOTION": 13.99031995, "ECCENTRICITY": 0.02069783, "INCLINATION": 85.9998, "RA_OF_ASC_NODE": 351.2277, "ARG_OF_PERICENTER": 245.8173, "MEAN_ANOMALY": 269.932, "EPHEMERIS_TYPE": 0, "CLASSIFICATION_TYPE": "U", "NORAD_CAT_ID": 33853, "ELEMENT_SET_NO": 999, "REV_AT_EPOCH": 85300, "BSTAR": 0.0029960339, "MEAN_MOTION_DOT": 5.22e-05, "MEAN_MOTION_DDOT": 0}, "tle": {"line1": "1 33853U 97051W   25343.50930575  .00005220  00000+0  29960-2 0  9991", "line2": "2 33853  85.9998 351.2277 0206978 245.8173 269.9320 13.99031995853007"}}, "geometry": {"type": "Point", "coordinates": [-2.055207401423513, 60.964986476557364]}}, {"type": "Feature", "properties": {"norad_id": 33860, "name": "IRIDIUM 33 DEB", "group": "iridium-33-debris", "lat": -12.945637326102462, "lon": -151.02897355973388, "alt_km": 679.6568125420854, "timestamp": "2025-12-10T16:57:12.022950+00:00", "meta": {"OBJECT_NAME": "IRIDIUM 33 DEB", "OBJECT_ID": "1997-051AD", "EPOCH": "2025-12-10T09:47:56.154048", "MEAN_MOTION": 14.67318543, "ECCENTRICITY": 0.0007756, "INCLINATION": 86.3835, "RA_OF_ASC_NODE": 28.2699, "ARG_OF_PERICENTER": 6.0738, "MEAN_ANOMALY": 53.1424, "EPHEMERIS_TYPE": 0, "CLASSIFICATION_TYPE": "U", "NORAD_CAT_ID": 33860, "ELEMENT_SET_NO": 999, "REV_AT_EPOCH": 88688, "BSTAR": 0.0017974, "MEAN_MOTION_DOT": 0.00010173, "MEAN_MOTION_DDOT": 0}, "tle": {"line1": "1 33860U 97051AD  25344.40828882  .00010173  00000+0  17974-2 0  9991", "line2": "2 33860  86.3835  28.2699 0007756   6.0738  53.1424 14.67318543886889"}}, "geometry": {"type": "Point", "coordinates": [-151.02897355973388, -12.945637326102462]}}, {"type": "Feature", "properties": {"norad_id": 33862, "name": "IRIDIUM 33 DEB", "group": "iridium-33-debris", "lat": -33.228677700068864, "lon": -139.2155128262026, "alt_km": 696.8560736883228, "timestamp": "2025-12-10T16:57:12.022961+00:00", "meta": {"OBJECT_NAME": "IRIDIUM 33 DEB", "OBJECT_ID": "1997-051AF", "EPOCH": "2025-12-10T04:48:51.418368", "MEAN_MOTION": 14.69405819, "ECCENTRICITY": 0.0053669, "INCLINATION": 86.4089, "RA_OF_ASC_NODE": 38.6496, "ARG_OF_PERICENTER": 77.6795, "MEAN_ANOMALY": 341.2532, "EPHEMERIS_TYPE": 0, "CLASSIFICATION_TYPE": "U", "NORAD_CAT_ID": 33862, "ELEMENT_SET_NO": 999, "REV_AT_EPOCH": 88786, "BSTAR": 0.0019581, "MEAN_MOTION_DOT": 0.00011873, "MEAN_MOTION_DDOT": 0}, "tle": {"line1": "1 33862U 97051AF  25344.20059512  .00011873  00000+0  19581-2 0  9991", "line2": "2 33862  86.4089  38.6496 0053669  77.6795 341.2532 14.69405819887869"}}, "geometry": {"type": "Point", "coordinates": [-139.2155128262026, -33.228677700068864]}}, {"type": "Feature", "properties": {"norad_id": 33866, "name": "IRIDIUM 33 DEB", "group": "iridium-33-debris", "lat": -62.05710376823786, "lon": -79.09694569263554, "alt_km": 791.8696209589807, "timestamp": "2025-12-10T16:57:12.022973+00:00", "meta": {"OBJECT_NAME": "IRIDIUM 33 DEB", "OBJECT_ID": "1997-051AK", "EPOCH": "2025-12-10T07:29:42.778752", "MEAN_MOTION": 14.25261956, "ECCENTRICITY": 0.0114289, "INCLINATION": 86.2999, "RA_OF_ASC_NODE": 94.0625, "ARG_OF_PERICENTER": 169.117, "MEAN_ANOMALY": 211.0673, "EPHEMERIS_TYPE": 0, "CLASSIFICATION_TYPE": "U", "NORAD_CAT_ID": 33866, "ELEMENT_SET_NO": 999, "REV_AT_EPOCH": 86776, "BSTAR": 0.0011075, "MEAN_MOTION_DOT": 2.807e-05, "MEAN_MOTION_DDOT": 0}, "tle": {"line1": "1 33866U 97051AK  25344.31230068  .00002807  00000+0  11075-2 0  9991", "line2": "2 33866  86.2999  94.0625 0114289 169.1170 211.0673 14.25261956867762"}}, "geometry": {"type": "Point", "coordinates": [-79.09694569263554, -62.05710376823786]}}]}